start=new Date('2022-05-27T00:00:00.000Z').valueOf();
sats=[{"MEAN_MOTION":"15.68244593","TLE_LINE2":"2 52547  53.2198 229.0569 0003732  10.2267 349.8826 15.68244593  2514","EPOCH":"2022-05-26T21:02:25.184832","DECAY_DATE":null,"REV_AT_EPOCH":"251","LAUNCH_DATE":"2022-05-13","CLASSIFICATION_TYPE":"U","INCLINATION":"53.2198","PERIOD":"91.822","CENTER_NAME":"EARTH","TLE_LINE1":"1 52547U 22051Q   22146.87668038 -.00421880  00000-0 -38834-2 0  9997","RCS_SIZE":"LARGE","ARG_OF_PERICENTER":"10.2267","REF_FRAME":"TEME","OBJECT_TYPE":"PAYLOAD","EPHEMERIS_TYPE":"0","RA_OF_ASC_NODE":"229.0569","MEAN_ANOMALY":"349.8826","OBJECT_NAME":"STARLINK-3869","GP_ID":"204630058","SEMIMAJOR_AXIS":"6742.060","MEAN_MOTION_DOT":"-0.00421880","SITE":"AFWTR","OBJECT_ID":"2022-051Q","MEAN_ELEMENT_THEORY":"SGP4","TIME_SYSTEM":"UTC","ELEMENT_SET_NO":"999","ECCENTRICITY":"0.00037320","APOAPSIS":"366.442","NORAD_CAT_ID":"52547","COUNTRY_CODE":"US","PERIAPSIS":"361.409","FILE":"3466271","MEAN_MOTION_DDOT":"0.0000000000000","BSTAR":"-0.00388340000000"},{"CENTER_NAME":"EARTH","PERIOD":"91.533","RCS_SIZE":"LARGE","TLE_LINE1":"1 52548U 22051R   22146.91667824 -.00072703  00000-0 -51790-3 0  9998","REF_FRAME":"TEME","ARG_OF_PERICENTER":"29.8730","MEAN_ANOMALY":"229.9077","RA_OF_ASC_NODE":"228.7983","EPHEMERIS_TYPE":"0","OBJECT_TYPE":"PAYLOAD","OBJECT_NAME":"STARLINK-3931","TLE_LINE2":"2 52548  53.2176 228.7983 0002069  29.8730 229.9077 15.73205278  1305","MEAN_MOTION":"15.73205278","DECAY_DATE":null,"EPOCH":"2022-05-26T22:00:00.999936","LAUNCH_DATE":"2022-05-13","REV_AT_EPOCH":"130","INCLINATION":"53.2176","CLASSIFICATION_TYPE":"U","APOAPSIS":"351.137","ECCENTRICITY":"0.00020690","NORAD_CAT_ID":"52548","FILE":"3466271","COUNTRY_CODE":"US","PERIAPSIS":"348.353","BSTAR":"-0.00051790000000","MEAN_MOTION_DDOT":"0.0000000000000","SITE":"AFWTR","MEAN_MOTION_DOT":"-0.00072703","GP_ID":"204630164","SEMIMAJOR_AXIS":"6727.880","OBJECT_ID":"2022-051R","ELEMENT_SET_NO":"999","TIME_SYSTEM":"UTC","MEAN_ELEMENT_THEORY":"SGP4"},{"GP_ID":"204630287","SEMIMAJOR_AXIS":"6727.964","SITE":"AFWTR","MEAN_MOTION_DOT":"0.00016908","OBJECT_ID":"2022-051S","MEAN_ELEMENT_THEORY":"SGP4","ELEMENT_SET_NO":"999","TIME_SYSTEM":"UTC","ECCENTRICITY":"0.00020040","APOAPSIS":"351.178","NORAD_CAT_ID":"52549","FILE":"3466271","COUNTRY_CODE":"US","PERIAPSIS":"348.481","BSTAR":"0.00012477000000","MEAN_MOTION_DDOT":"0.0000000000000","MEAN_MOTION":"15.73175720","TLE_LINE2":"2 52549  53.2174 228.8049 0002004  22.8472 233.3493 15.73175720  1302","DECAY_DATE":null,"EPOCH":"2022-05-26T22:00:00.999936","REV_AT_EPOCH":"130","LAUNCH_DATE":"2022-05-13","CLASSIFICATION_TYPE":"U","INCLINATION":"53.2174","PERIOD":"91.535","CENTER_NAME":"EARTH","TLE_LINE1":"1 52549U 22051S   22146.91667824  .00016908  00000-0  12477-3 0  9991","RCS_SIZE":"LARGE","ARG_OF_PERICENTER":"22.8472","REF_FRAME":"TEME","EPHEMERIS_TYPE":"0","OBJECT_TYPE":"PAYLOAD","MEAN_ANOMALY":"233.3493","RA_OF_ASC_NODE":"228.8049","OBJECT_NAME":"STARLINK-3935"},{"APOAPSIS":"351.226","ECCENTRICITY":"0.00021220","NORAD_CAT_ID":"52550","FILE":"3466271","PERIAPSIS":"348.371","COUNTRY_CODE":"US","BSTAR":"0.00013059000000","MEAN_MOTION_DDOT":"0.0000000000000","SITE":"AFWTR","MEAN_MOTION_DOT":"0.00017736","GP_ID":"204630608","SEMIMAJOR_AXIS":"6727.934","OBJECT_ID":"2022-051T","ELEMENT_SET_NO":"999","TIME_SYSTEM":"UTC","MEAN_ELEMENT_THEORY":"SGP4","CENTER_NAME":"EARTH","PERIOD":"91.534","ARG_OF_PERICENTER":"33.1909","TLE_LINE1":"1 52550U 22051T   22146.91667824  .00017736  00000-0  13059-3 0  9990","RCS_SIZE":"LARGE","REF_FRAME":"TEME","MEAN_ANOMALY":"225.3818","RA_OF_ASC_NODE":"228.8007","EPHEMERIS_TYPE":"0","OBJECT_TYPE":"PAYLOAD","OBJECT_NAME":"STARLINK-3965","TLE_LINE2":"2 52550  53.2177 228.8007 0002122  33.1909 225.3818 15.73186552  1309","MEAN_MOTION":"15.73186552","DECAY_DATE":null,"EPOCH":"2022-05-26T22:00:00.999936","LAUNCH_DATE":"2022-05-13","REV_AT_EPOCH":"130","CLASSIFICATION_TYPE":"U","INCLINATION":"53.2177"},{"GP_ID":"204630393","SEMIMAJOR_AXIS":"6727.891","SITE":"AFWTR","MEAN_MOTION_DOT":"-0.00082575","MEAN_ELEMENT_THEORY":"SGP4","ELEMENT_SET_NO":"999","TIME_SYSTEM":"UTC","OBJECT_ID":"2022-051U","NORAD_CAT_ID":"52551","ECCENTRICITY":"0.00020960","APOAPSIS":"351.166","BSTAR":"-0.00058961000000","MEAN_MOTION_DDOT":"0.0000000000000","FILE":"3466271","PERIAPSIS":"348.346","COUNTRY_CODE":"US","DECAY_DATE":null,"EPOCH":"2022-05-26T22:00:00.999936","MEAN_MOTION":"15.73201410","TLE_LINE2":"2 52551  53.2172 228.8026 0002096  24.8881 232.5441 15.73201410  1305","CLASSIFICATION_TYPE":"U","INCLINATION":"53.2172","REV_AT_EPOCH":"130","LAUNCH_DATE":"2022-05-13","TLE_LINE1":"1 52551U 22051U   22146.91667824 -.00082575  00000-0 -58961-3 0  9997","RCS_SIZE":"MEDIUM","ARG_OF_PERICENTER":"24.8881","REF_FRAME":"TEME","PERIOD":"91.533","CENTER_NAME":"EARTH","OBJECT_NAME":"STARLINK-3969","EPHEMERIS_TYPE":"0","OBJECT_TYPE":"PAYLOAD","MEAN_ANOMALY":"232.5441","RA_OF_ASC_NODE":"228.8026"},{"MEAN_ANOMALY":"227.5079","RA_OF_ASC_NODE":"228.7976","EPHEMERIS_TYPE":"0","OBJECT_TYPE":"PAYLOAD","OBJECT_NAME":"STARLINK-3966","CENTER_NAME":"EARTH","PERIOD":"91.535","TLE_LINE1":"1 52552U 22051V   22146.91667824  .00016306  00000-0  12051-3 0  9995","ARG_OF_PERICENTER":"32.8682","RCS_SIZE":"LARGE","REF_FRAME":"TEME","LAUNCH_DATE":"2022-05-13","REV_AT_EPOCH":"130","INCLINATION":"53.2178","CLASSIFICATION_TYPE":"U","TLE_LINE2":"2 52552  53.2178 228.7976 0002131  32.8682 227.5079 15.73173175  1300","MEAN_MOTION":"15.73173175","DECAY_DATE":null,"EPOCH":"2022-05-26T22:00:00.999936","FILE":"3466271","COUNTRY_CODE":"US","PERIAPSIS":"348.403","BSTAR":"0.00012051000000","MEAN_MOTION_DDOT":"0.0000000000000","APOAPSIS":"351.270","ECCENTRICITY":"0.00021310","NORAD_CAT_ID":"52552","OBJECT_ID":"2022-051V","ELEMENT_SET_NO":"999","TIME_SYSTEM":"UTC","MEAN_ELEMENT_THEORY":"SGP4","SITE":"AFWTR","MEAN_MOTION_DOT":"0.00016306","GP_ID":"204630500","SEMIMAJOR_AXIS":"6727.972"},{"OBJECT_TYPE":"PAYLOAD","EPHEMERIS_TYPE":"0","RA_OF_ASC_NODE":"229.0262","MEAN_ANOMALY":"6.3405","OBJECT_NAME":"STARLINK-3858","PERIOD":"91.531","CENTER_NAME":"EARTH","ARG_OF_PERICENTER":"353.7599","TLE_LINE1":"1 52553U 22051W   22146.87116222  .00037222  00000-0  26794-3 0  9991","RCS_SIZE":"LARGE","REF_FRAME":"TEME","REV_AT_EPOCH":"251","LAUNCH_DATE":"2022-05-13","CLASSIFICATION_TYPE":"U","INCLINATION":"53.2194","MEAN_MOTION":"15.73244593","TLE_LINE2":"2 52553  53.2194 229.0262 0001304 353.7599   6.3405 15.73244593  2517","EPOCH":"2022-05-26T20:54:28.415808","DECAY_DATE":null,"COUNTRY_CODE":"US","PERIAPSIS":"348.756","FILE":"3466271","MEAN_MOTION_DDOT":"0.0000000000000","BSTAR":"0.00026794000000","APOAPSIS":"350.510","ECCENTRICITY":"0.00013040","NORAD_CAT_ID":"52553","OBJECT_ID":"2022-051W","MEAN_ELEMENT_THEORY":"SGP4","TIME_SYSTEM":"UTC","ELEMENT_SET_NO":"999","SEMIMAJOR_AXIS":"6727.768","GP_ID":"204629952","MEAN_MOTION_DOT":"0.00037222","SITE":"AFWTR"},{"REV_AT_EPOCH":"130","LAUNCH_DATE":"2022-05-13","CLASSIFICATION_TYPE":"U","INCLINATION":"53.2174","MEAN_MOTION":"15.67830646","TLE_LINE2":"2 52554  53.2174 228.8186 0001643  40.0164 192.2025 15.67830646  1300","EPOCH":"2022-05-26T22:00:00.999936","DECAY_DATE":null,"OBJECT_TYPE":"PAYLOAD","EPHEMERIS_TYPE":"0","RA_OF_ASC_NODE":"228.8186","MEAN_ANOMALY":"192.2025","OBJECT_NAME":"STARLINK-3770","PERIOD":"91.847","CENTER_NAME":"EARTH","RCS_SIZE":"MEDIUM","TLE_LINE1":"1 52554U 22051X   22146.91667824 -.00832557  00000-0 -82014-2 0  9998","ARG_OF_PERICENTER":"40.0164","REF_FRAME":"TEME","OBJECT_ID":"2022-051X","MEAN_ELEMENT_THEORY":"SGP4","TIME_SYSTEM":"UTC","ELEMENT_SET_NO":"999","SEMIMAJOR_AXIS":"6743.247","GP_ID":"204630696","MEAN_MOTION_DOT":"-0.00832557","SITE":"AFWTR","PERIAPSIS":"364.004","COUNTRY_CODE":"US","FILE":"3466271","MEAN_MOTION_DDOT":"0.0000000000000","BSTAR":"-0.00820140000000","APOAPSIS":"366.220","ECCENTRICITY":"0.00016430","NORAD_CAT_ID":"52554"},{"MEAN_MOTION_DDOT":"0.0000000000000","BSTAR":"-0.00078249000000","COUNTRY_CODE":"US","PERIAPSIS":"348.199","FILE":"3466271","NORAD_CAT_ID":"52555","APOAPSIS":"351.271","ECCENTRICITY":"0.00022830","TIME_SYSTEM":"UTC","ELEMENT_SET_NO":"999","MEAN_ELEMENT_THEORY":"SGP4","OBJECT_ID":"2022-051Y","MEAN_MOTION_DOT":"-0.00109083","SITE":"AFWTR","SEMIMAJOR_AXIS":"6727.870","GP_ID":"204630059","OBJECT_NAME":"STARLINK-3949","RA_OF_ASC_NODE":"228.7995","MEAN_ANOMALY":"238.3043","OBJECT_TYPE":"PAYLOAD","EPHEMERIS_TYPE":"0","RCS_SIZE":"LARGE","TLE_LINE1":"1 52555U 22051Y   22146.91667824 -.00109083  00000-0 -78249-3 0  9996","ARG_OF_PERICENTER":"20.8750","REF_FRAME":"TEME","CENTER_NAME":"EARTH","PERIOD":"91.533","CLASSIFICATION_TYPE":"U","INCLINATION":"53.2175","LAUNCH_DATE":"2022-05-13","REV_AT_EPOCH":"130","EPOCH":"2022-05-26T22:00:00.999936","DECAY_DATE":null,"TLE_LINE2":"2 52555  53.2175 228.7995 0002283  20.8750 238.3043 15.73208833  1303","MEAN_MOTION":"15.73208833"},{"SITE":"AFWTR","MEAN_MOTION_DOT":"-0.00832647","SEMIMAJOR_AXIS":"6743.245","GP_ID":"204630165","ELEMENT_SET_NO":"999","TIME_SYSTEM":"UTC","MEAN_ELEMENT_THEORY":"SGP4","OBJECT_ID":"2022-051Z","NORAD_CAT_ID":"52556","ECCENTRICITY":"0.00016680","APOAPSIS":"366.234","BSTAR":"-0.00820200000000","MEAN_MOTION_DDOT":"0.0000000000000","FILE":"3466271","COUNTRY_CODE":"US","PERIAPSIS":"363.985","DECAY_DATE":null,"EPOCH":"2022-05-26T22:00:00.999936","TLE_LINE2":"2 52556  53.2174 228.8198 0001668  38.9681 194.4499 15.67831523  1306","MEAN_MOTION":"15.67831523","CLASSIFICATION_TYPE":"U","INCLINATION":"53.2174","LAUNCH_DATE":"2022-05-13","REV_AT_EPOCH":"130","TLE_LINE1":"1 52556U 22051Z   22146.91667824 -.00832647  00000-0 -82020-2 0  9997","RCS_SIZE":"LARGE","ARG_OF_PERICENTER":"38.9681","REF_FRAME":"TEME","CENTER_NAME":"EARTH","PERIOD":"91.847","OBJECT_NAME":"STARLINK-3763","MEAN_ANOMALY":"194.4499","RA_OF_ASC_NODE":"228.8198","EPHEMERIS_TYPE":"0","OBJECT_TYPE":"PAYLOAD"}];
